#aV2016  1 29  0  0  0.00000000     288 DD+AD WGS84 FIT  NGA
## 1881 432000.00000000   300.00000000 57416 0.0000000000000
+   30     1  2  3  5  6  7  8  9 10 11 12 13 14 15 16 17 18
+         19 20 21 22 23 24 25 26 27 28 29 30 31  0  0  0  0
+          0  0  0  0  0  0  0  0  0  0  0  0  0  0  0  0  0
+          0  0  0  0  0  0  0  0  0  0  0  0  0  0  0  0  0
+          0  0  0  0  0  0  0  0  0  0  0  0  0  0  0  0  0
++         2  2  2  2  2  2  2  2  2  2  2  2  2  2  2  2  2
++         2  2  2  2  2  2  2  2  2  2  2  2  2  0  0  0  0
++         0  0  0  0  0  0  0  0  0  0  0  0  0  0  0  0  0
++         0  0  0  0  0  0  0  0  0  0  0  0  0  0  0  0  0
++         0  0  0  0  0  0  0  0  0  0  0  0  0  0  0  0  0
%c cc cc ccc ccc cccc cccc cccc cccc ccccc ccccc ccccc ccccc
%c cc cc ccc ccc cccc cccc cccc cccc ccccc ccccc ccccc ccccc
%f  0.0000000  0.000000000  0.00000000000  0.000000000000000
%f  0.0000000  0.000000000  0.00000000000  0.000000000000000
%i    0    0    0    0      0      0      0      0         0
%i    0    0    0    0      0      0      0      0         0
/*      NGA, ST. LOUIS,MO.                                  
/*   EPHEMERIS COMPUTED FROM 2 DAYS OF DATA                 
/*   EPOCHA v2.4 SMOOTHER                                   
/*   G1762 IERS2010 SATAF SATAPC                            
*  2016  1 29 15 15  0.00000000
P  1 -13606.617438  22598.542908  -1908.463776     10.363939                    
V  1  -3709.468040    334.954631  31845.265715      0.009571                    
P  2  18729.944674  -7373.220733 -16698.416132    599.455871                    
V  2  -9495.634131  20237.293613 -19533.488101      0.001525                    
P  3 -12013.324258  13117.258415 -19732.346281    -17.886202                    
V  3 -24927.790942  -2753.743548  13332.617917     -0.049102                    
P  5  25914.155991  -2699.399516   5603.704189   -150.914952                    
V  5   7013.194375   3381.223724 -30228.372459      0.034801                    
P  6  13536.352163   6930.369762 -21767.942097    137.022884                    
V  6 -15091.397101  23166.376361  -2016.095725      0.061017                    
P  7  -1534.916133  21196.166398  15810.277909    471.835382                    
V  7 -13086.594943  15231.774185 -22250.568001     -0.015726                    
P  8 -10841.045408  11580.832968  21357.480532    -21.878744                    
V  8 -12664.292291 -23835.819044   6524.707369     -0.014358                    
P  9   7006.833385  24676.238713  -6888.419382     59.914349                    
V  9  -6474.752786  -6510.989020 -30001.302154      0.077670                    
P 10 -19687.324335 -11018.284160  14064.264628     48.030411                    
V 10  17924.435444  -1111.372049  24182.291381     -0.022405                    
P 11 -10778.309153  23127.102429   6716.321659   -629.684146                    
V 11  -2539.301335 -10157.582077  28629.944389     -0.019004                    
P 12  16031.509949 -10384.876207 -18471.887344    364.388980                    
V 12  22959.990941   3730.643373  18149.240845      0.026467                    
P 13  14936.520963  -2263.114897  21701.308264   -181.757360                    
V 13   9210.920340  26293.065128  -3663.001076     -0.025860                    
P 14 -14652.590411 -20446.237916  -8507.358371      6.249001                    
V 14  -1916.238185 -11201.966856  29217.639782     -0.023081                    
P 15   8326.501865 -15261.496038  19871.410898   -294.631441                    
V 15  14020.215231  21594.035510  10988.740391     -0.018638                    
P 16 -26197.495631    122.428422   5409.661409    -44.221921                    
V 16  -6629.852329  -2387.863866 -31184.523820      0.031876                    
P 17  14674.011330  20903.956188  -7328.408422   -199.768158                    
V 17   1957.232991   9719.237205  30101.725294     -0.007573                    
P 18  -8402.927806 -15626.622083  20351.834254    478.016702                    
V 18  24802.549480   -241.769980  10047.460734      0.039378                    
P 19  15471.975569  18033.867919 -11677.121536   -524.652005                    
V 19   3072.337432  14458.698662  27333.040569     -0.001788                    
P 20  14924.863380 -13317.022168  17343.578815    389.129785                    
V 20  22465.668976   1826.932667 -17708.059975      0.026381                    
P 21  -3306.197964 -19726.013508  18069.754070   -507.769074                    
V 21  13238.702528 -17302.397358 -17467.798690     -0.019662                    
P 22 -26450.820606  -2642.786916   2297.871533    404.933100                    
V 22   2779.716997  -3725.779101  30597.796895     -0.053679                    
P 23  -2789.982163  20556.124662 -16164.262319   -157.406219                    
V 23 -11586.408139 -17758.880963 -20797.789179     -0.019179                    
P 24  14886.291077 -21832.166999   1245.610529    -11.518467                    
V 24   1899.463190   3155.166948  31608.192026     -0.005991                    
P 25   1530.791791 -14799.753702 -22100.258914   -107.807899                    
V 25  27700.635318   1874.592738    847.773103     -0.065411                    
P 26 -25638.456002  -4926.760701  -4987.745122   -232.119011                    
V 26   6474.827509  -2363.816321 -30883.475868     -0.162233                    
P 27 -16096.907398    223.732855  21130.761773     57.862961                    
V 27 -11500.669039 -24238.943023  -8353.168292      0.034977                    
P 28  18291.835731  12606.610355  15231.122680    498.736909                    
V 28 -18138.529474  -1293.616823  23808.489480      0.026899                    
P 29  -3545.282223 -24548.687489  -9536.922653    653.017714                    
V 29   6700.344522  10292.945460 -28889.613022      0.010116                    
P 30   7314.474901  14732.623803  20833.232371     90.228197                    
V 30 -16850.270746  20480.770195  -8643.463719      0.045125                    
P 31 -14634.822496  -4777.453006 -21569.263200    284.951022                    
V 31  15777.106555 -22619.548729  -5311.330055     -0.016288                    
EOF
